STARLINK-1273
1 45367U 20019H   26090.58174398  .00098123  00000+0  18673-2 0  9998
2 45367  53.0506  50.4273 0004110  86.3397 273.8080 15.47443889333289
